STARLINK-5171           
1 54077U 22136AC  26047.40113449  .00000394  00000+0  42835-4 0  9993
2 54077  53.2182  55.3225 0001398  84.1123 276.0028 15.08841605183979
STARLINK-5175           
1 54079U 22136AE  26047.44474912 -.00000391  00000+0 -64746-5 0  9999
2 54079  53.2181  69.7164 0001611  79.4389 280.6785 15.08845422183770
STARLINK-5160           
1 54080U 22136AF  26047.43876037  .00000281  00000+0  35723-4 0  9992
2 54080  53.2169  74.6830 0001420 101.3208 258.7944 15.08840847183708
STARLINK-5210           
1 54082U 22136AH  26047.44106287  .00001048  00000+0  83919-4 0  9990
2 54082  53.2174  69.6934 0001404  88.3115 271.8038 15.08844093183772
STARLINK-5178           
1 54083U 22136AJ  26047.43001423  .00001247  00000+0  96451-4 0  9992
2 54083  53.2172  69.6262 0001402  92.7594 267.3559 15.08834296183775
STARLINK-5183           
1 54084U 22136AK  26047.43738063  .00001776  00000+0  12965-3 0  9994
2 54084  53.2184  69.6706 0000871  72.3995 287.7092 15.08841556183775
STARLINK-5166           
1 54085U 22136AL  26047.49351092  .00001702  00000+0  12496-3 0  9992
2 54085  53.2169  69.3106 0001327  85.1409 274.9735 15.08850113183781
STARLINK-5211           
1 54086U 22136AM  26047.42957483 -.00001738  00000+0 -91146-4 0  9993
2 54086  53.2171  54.6633 0001417  98.2738 261.8415 15.08823968183987
STARLINK-5184           
1 54087U 22136AN  26047.32323554  .00001059  00000+0  84621-4 0  9993
2 54087  53.2172  69.6788 0001458  85.3922 274.7237 15.08847879183761
STARLINK-5153           
1 54088U 22136AP  26047.43369400 -.00000115  00000+0  10875-4 0  9999
2 54088  53.2171  69.6471 0001359  92.0756 268.0392 15.08850928183778
STARLINK-5143           
1 54089U 22136AQ  26047.47782583 -.00000730  00000+0 -27775-4 0  9996
2 54089  53.2196  69.2183 0001465  95.0841 265.0319 15.08843510183784
STARLINK-5177           
1 54090U 22136AR  26047.34903008  .00000284  00000+0  35936-4 0  9991
2 54090  53.2176  69.8282 0001543 103.3470 256.7695 15.08842836183760
STARLINK-5221           
1 54091U 22136AS  26047.45204006  .00000001  00000+0  18159-4 0  9991
2 54091  53.2168  69.0579 0001174  83.2605 276.8521 15.08847524183781
STARLINK-5190           
1 54092U 22136AT  26047.78676851  .00052658  00000+0  53440-3 0  9995
2 54092  53.1787 276.6680 0002999 160.0142 200.0991 15.64716048185952
STARLINK-5213           
1 54093U 22136AU  26047.46676620 -.00003749  00000+0 -21753-3 0  9996
2 54093  53.2176  69.1417 0002851 154.7527 205.3605 15.08843378183787
STARLINK-5193           
1 54095U 22136AW  26047.45939845  .00000676  00000+0  60532-4 0  9991
2 54095  53.2171  69.0979 0001432  89.7619 270.3537 15.08854591183784
