[{"OBJECT_NAME":"STARLINK-5171","OBJECT_ID":"2022-136AC","EPOCH":"2026-02-16T09:37:38.019936","MEAN_MOTION":15.08841605,"ECCENTRICITY":0.00013987,"INCLINATION":53.2182,"RA_OF_ASC_NODE":55.3225,"ARG_OF_PERICENTER":84.1123,"MEAN_ANOMALY":276.0028,"EPHEMERIS_TYPE":0,"CLASSIFICATION_TYPE":"U","NORAD_CAT_ID":54077,"ELEMENT_SET_NO":999,"REV_AT_EPOCH":18397,"BSTAR":4.2835021e-5,"MEAN_MOTION_DOT":3.94e-6,"MEAN_MOTION_DDOT":0},{"OBJECT_NAME":"STARLINK-5175","OBJECT_ID":"2022-136AE","EPOCH":"2026-02-16T10:40:26.323968","MEAN_MOTION":15.08845422,"ECCENTRICITY":0.00016115,"INCLINATION":53.2181,"RA_OF_ASC_NODE":69.7164,"ARG_OF_PERICENTER":79.4389,"MEAN_ANOMALY":280.6785,"EPHEMERIS_TYPE":0,"CLASSIFICATION_TYPE":"U","NORAD_CAT_ID":54079,"ELEMENT_SET_NO":999,"REV_AT_EPOCH":18377,"BSTAR":-6.474647e-6,"MEAN_MOTION_DOT":-3.91e-6,"MEAN_MOTION_DDOT":0},{"OBJECT_NAME":"STARLINK-5160","OBJECT_ID":"2022-136AF","EPOCH":"2026-02-16T10:31:48.895968","MEAN_MOTION":15.08840847,"ECCENTRICITY":0.00014203,"INCLINATION":53.2169,"RA_OF_ASC_NODE":74.683,"ARG_OF_PERICENTER":101.3208,"MEAN_ANOMALY":258.7944,"EPHEMERIS_TYPE":0,"CLASSIFICATION_TYPE":"U","NORAD_CAT_ID":54080,"ELEMENT_SET_NO":999,"REV_AT_EPOCH":18370,"BSTAR":3.5723229e-5,"MEAN_MOTION_DOT":2.81e-6,"MEAN_MOTION_DDOT":0},{"OBJECT_NAME":"STARLINK-5210","OBJECT_ID":"2022-136AH","EPOCH":"2026-02-16T10:35:07.831968","MEAN_MOTION":15.08844093,"ECCENTRICITY":0.00014046,"INCLINATION":53.2174,"RA_OF_ASC_NODE":69.6934,"ARG_OF_PERICENTER":88.3115,"MEAN_ANOMALY":271.8038,"EPHEMERIS_TYPE":0,"CLASSIFICATION_TYPE":"U","NORAD_CAT_ID":54082,"ELEMENT_SET_NO":999,"REV_AT_EPOCH":18377,"BSTAR":8.3918897e-5,"MEAN_MOTION_DOT":1.048e-5,"MEAN_MOTION_DDOT":0},{"OBJECT_NAME":"STARLINK-5178","OBJECT_ID":"2022-136AJ","EPOCH":"2026-02-16T10:19:13.229472","MEAN_MOTION":15.08834296,"ECCENTRICITY":0.00014024,"INCLINATION":53.2172,"RA_OF_ASC_NODE":69.6262,"ARG_OF_PERICENTER":92.7594,"MEAN_ANOMALY":267.3559,"EPHEMERIS_TYPE":0,"CLASSIFICATION_TYPE":"U","NORAD_CAT_ID":54083,"ELEMENT_SET_NO":999,"REV_AT_EPOCH":18377,"BSTAR":9.6451043e-5,"MEAN_MOTION_DOT":1.247e-5,"MEAN_MOTION_DDOT":0},{"OBJECT_NAME":"STARLINK-5183","OBJECT_ID":"2022-136AK","EPOCH":"2026-02-16T10:29:49.686432","MEAN_MOTION":15.08841556,"ECCENTRICITY":8.714e-5,"INCLINATION":53.2184,"RA_OF_ASC_NODE":69.6706,"ARG_OF_PERICENTER":72.3995,"MEAN_ANOMALY":287.7092,"EPHEMERIS_TYPE":0,"CLASSIFICATION_TYPE":"U","NORAD_CAT_ID":54084,"ELEMENT_SET_NO":999,"REV_AT_EPOCH":18377,"BSTAR":0.00012964598,"MEAN_MOTION_DOT":1.776e-5,"MEAN_MOTION_DDOT":0},{"OBJECT_NAME":"STARLINK-5166","OBJECT_ID":"2022-136AL","EPOCH":"2026-02-16T11:50:39.343488","MEAN_MOTION":15.08850113,"ECCENTRICITY":0.00013279,"INCLINATION":53.2169,"RA_OF_ASC_NODE":69.3106,"ARG_OF_PERICENTER":85.1409,"MEAN_ANOMALY":274.9735,"EPHEMERIS_TYPE":0,"CLASSIFICATION_TYPE":"U","NORAD_CAT_ID":54085,"ELEMENT_SET_NO":999,"REV_AT_EPOCH":18378,"BSTAR":0.00012495966,"MEAN_MOTION_DOT":1.702e-5,"MEAN_MOTION_DDOT":0},{"OBJECT_NAME":"STARLINK-5211","OBJECT_ID":"2022-136AM","EPOCH":"2026-02-16T10:18:35.265312","MEAN_MOTION":15.08823968,"ECCENTRICITY":0.00014179,"INCLINATION":53.2171,"RA_OF_ASC_NODE":54.6633,"ARG_OF_PERICENTER":98.2738,"MEAN_ANOMALY":261.8415,"EPHEMERIS_TYPE":0,"CLASSIFICATION_TYPE":"U","NORAD_CAT_ID":54086,"ELEMENT_SET_NO":999,"REV_AT_EPOCH":18398,"BSTAR":-9.1146386e-5,"MEAN_MOTION_DOT":-1.738e-5,"MEAN_MOTION_DDOT":0},{"OBJECT_NAME":"STARLINK-5184","OBJECT_ID":"2022-136AN","EPOCH":"2026-02-16T07:45:27.550656","MEAN_MOTION":15.08847879,"ECCENTRICITY":0.00014585,"INCLINATION":53.2172,"RA_OF_ASC_NODE":69.6788,"ARG_OF_PERICENTER":85.3922,"MEAN_ANOMALY":274.7237,"EPHEMERIS_TYPE":0,"CLASSIFICATION_TYPE":"U","NORAD_CAT_ID":54087,"ELEMENT_SET_NO":999,"REV_AT_EPOCH":18376,"BSTAR":8.4621483e-5,"MEAN_MOTION_DOT":1.059e-5,"MEAN_MOTION_DDOT":0},{"OBJECT_NAME":"STARLINK-5153","OBJECT_ID":"2022-136AP","EPOCH":"2026-02-16T10:24:31.161600","MEAN_MOTION":15.08850928,"ECCENTRICITY":0.00013599,"INCLINATION":53.2171,"RA_OF_ASC_NODE":69.6471,"ARG_OF_PERICENTER":92.0756,"MEAN_ANOMALY":268.0392,"EPHEMERIS_TYPE":0,"CLASSIFICATION_TYPE":"U","NORAD_CAT_ID":54088,"ELEMENT_SET_NO":999,"REV_AT_EPOCH":18377,"BSTAR":1.0874798e-5,"MEAN_MOTION_DOT":-1.15e-6,"MEAN_MOTION_DDOT":0},{"OBJECT_NAME":"STARLINK-5143","OBJECT_ID":"2022-136AQ","EPOCH":"2026-02-16T11:28:04.151712","MEAN_MOTION":15.0884351,"ECCENTRICITY":0.00014654,"INCLINATION":53.2196,"RA_OF_ASC_NODE":69.2183,"ARG_OF_PERICENTER":95.0841,"MEAN_ANOMALY":265.0319,"EPHEMERIS_TYPE":0,"CLASSIFICATION_TYPE":"U","NORAD_CAT_ID":54089,"ELEMENT_SET_NO":999,"REV_AT_EPOCH":18378,"BSTAR":-2.7775288e-5,"MEAN_MOTION_DOT":-7.3e-6,"MEAN_MOTION_DDOT":0},{"OBJECT_NAME":"STARLINK-5177","OBJECT_ID":"2022-136AR","EPOCH":"2026-02-16T08:22:36.198912","MEAN_MOTION":15.08842836,"ECCENTRICITY":0.0001543,"INCLINATION":53.2176,"RA_OF_ASC_NODE":69.8282,"ARG_OF_PERICENTER":103.347,"MEAN_ANOMALY":256.7695,"EPHEMERIS_TYPE":0,"CLASSIFICATION_TYPE":"U","NORAD_CAT_ID":54090,"ELEMENT_SET_NO":999,"REV_AT_EPOCH":18376,"BSTAR":3.5936e-5,"MEAN_MOTION_DOT":2.84e-6,"MEAN_MOTION_DDOT":0},{"OBJECT_NAME":"STARLINK-5221","OBJECT_ID":"2022-136AS","EPOCH":"2026-02-16T10:50:56.261184","MEAN_MOTION":15.08847524,"ECCENTRICITY":0.00011749,"INCLINATION":53.2168,"RA_OF_ASC_NODE":69.0579,"ARG_OF_PERICENTER":83.2605,"MEAN_ANOMALY":276.8521,"EPHEMERIS_TYPE":0,"CLASSIFICATION_TYPE":"U","NORAD_CAT_ID":54091,"ELEMENT_SET_NO":999,"REV_AT_EPOCH":18378,"BSTAR":1.8159161e-5,"MEAN_MOTION_DOT":1.0e-8,"MEAN_MOTION_DDOT":0},{"OBJECT_NAME":"STARLINK-5190","OBJECT_ID":"2022-136AT","EPOCH":"2026-02-16T18:52:56.799264","MEAN_MOTION":15.64716048,"ECCENTRICITY":0.0002999,"INCLINATION":53.1787,"RA_OF_ASC_NODE":276.668,"ARG_OF_PERICENTER":160.0142,"MEAN_ANOMALY":200.0991,"EPHEMERIS_TYPE":0,"CLASSIFICATION_TYPE":"U","NORAD_CAT_ID":54092,"ELEMENT_SET_NO":999,"REV_AT_EPOCH":18595,"BSTAR":0.0005344,"MEAN_MOTION_DOT":0.00052658,"MEAN_MOTION_DDOT":0},{"OBJECT_NAME":"STARLINK-5213","OBJECT_ID":"2022-136AU","EPOCH":"2026-02-16T11:12:08.599680","MEAN_MOTION":15.08843378,"ECCENTRICITY":0.00028515,"INCLINATION":53.2176,"RA_OF_ASC_NODE":69.1417,"ARG_OF_PERICENTER":154.7527,"MEAN_ANOMALY":205.3605,"EPHEMERIS_TYPE":0,"CLASSIFICATION_TYPE":"U","NORAD_CAT_ID":54093,"ELEMENT_SET_NO":999,"REV_AT_EPOCH":18378,"BSTAR":-0.00021752978,"MEAN_MOTION_DOT":-3.749e-5,"MEAN_MOTION_DDOT":0},{"OBJECT_NAME":"STARLINK-5193","OBJECT_ID":"2022-136AW","EPOCH":"2026-02-16T11:01:32.026080","MEAN_MOTION":15.08854591,"ECCENTRICITY":0.00014325,"INCLINATION":53.2171,"RA_OF_ASC_NODE":69.0979,"ARG_OF_PERICENTER":89.7619,"MEAN_ANOMALY":270.3537,"EPHEMERIS_TYPE":0,"CLASSIFICATION_TYPE":"U","NORAD_CAT_ID":54095,"ELEMENT_SET_NO":999,"REV_AT_EPOCH":18378,"BSTAR":6.0532121e-5,"MEAN_MOTION_DOT":6.76e-6,"MEAN_MOTION_DDOT":0}]
